{
  "norad_id": 67388,
  "name": "LEMUR-2-HCS-BAZUS",
  "history": [
    {
      "epoch": "2026-04-13T17:48:22.956768Z",
      "apogee_km": 600.418214446403,
      "perigee_km": 598.5789097122388,
      "latitude_deg": 3.385545395987709e-05,
      "longitude_deg": -5.446608561710805,
      "height_km": 601.6554474666998,
      "semi_major_axis_km": 6977.635562079321,
      "eccentricity": 0.0001318,
      "inclination_deg": 97.8036,
      "raan_deg": 103.5774,
      "arg_perigee_deg": 343.2781,
      "mean_anomaly_deg": 16.8393,
      "mean_motion_rev_day": 14.89499418
    },
    {
      "epoch": "2026-04-15T18:10:27.538752Z",
      "apogee_km": 600.2204808715233,
      "perigee_km": 598.721690654701,
      "latitude_deg": -3.716066719608694e-05,
      "longitude_deg": -10.964087994004794,
      "height_km": 601.8107798158699,
      "semi_major_axis_km": 6977.608085763111,
      "eccentricity": 0.0001074,
      "inclination_deg": 97.8045,
      "raan_deg": 105.5654,
      "arg_perigee_deg": 338.6577,
      "mean_anomaly_deg": 21.4595,
      "mean_motion_rev_day": 14.89508216
    },
    {
      "epoch": "2026-04-15T18:10:27.539616Z",
      "apogee_km": 600.2201319911183,
      "perigee_km": 598.7220395351051,
      "latitude_deg": -3.924785658975268e-05,
      "longitude_deg": -10.963991319341137,
      "height_km": 601.8111048416998,
      "semi_major_axis_km": 6977.608085763111,
      "eccentricity": 0.00010735,
      "inclination_deg": 97.8045,
      "raan_deg": 105.5655,
      "arg_perigee_deg": 338.6577,
      "mean_anomaly_deg": 21.4595,
      "mean_motion_rev_day": 14.89508216
    },
    {
      "epoch": "2026-04-17T23:22:43.142016Z",
      "apogee_km": 600.0758262989793,
      "perigee_km": 598.7745109545303,
      "latitude_deg": 8.11971586387233e-06,
      "longitude_deg": -89.02662862816291,
      "height_km": 601.9842168520066,
      "semi_major_axis_km": 6977.562168626755,
      "eccentricity": 9.325e-05,
      "inclination_deg": 97.8041,
      "raan_deg": 107.7529,
      "arg_perigee_deg": 317.4148,
      "mean_anomaly_deg": 42.6997,
      "mean_motion_rev_day": 14.89522919
    },
    {
      "epoch": "2026-04-18T12:16:35.783328Z",
      "apogee_km": 600.0313610565072,
      "perigee_km": 598.8033114933223,
      "latitude_deg": -5.575850842687413e-05,
      "longitude_deg": 77.50434107713185,
      "height_km": 602.0115664987203,
      "semi_major_axis_km": 6977.554336274914,
      "eccentricity": 8.8e-05,
      "inclination_deg": 97.804,
      "raan_deg": 108.2829,
      "arg_perigee_deg": 316.2931,
      "mean_anomaly_deg": 43.8216,
      "mean_motion_rev_day": 14.89525427
    },
    {
      "epoch": "2026-04-19T17:17:48.817824Z",
      "apogee_km": 599.9167095928569,
      "perigee_km": 598.8644984301727,
      "latitude_deg": 2.8774395917193255e-05,
      "longitude_deg": 2.20139739216498,
      "height_km": 602.1167059354774,
      "semi_major_axis_km": 6977.527604011514,
      "eccentricity": 7.54e-05,
      "inclination_deg": 97.8034,
      "raan_deg": 109.4761,
      "arg_perigee_deg": 306.3786,
      "mean_anomaly_deg": 53.7362,
      "mean_motion_rev_day": 14.89533987
    },
    {
      "epoch": "2026-04-19T23:44:44.979936Z",
      "apogee_km": 600.0011709146938,
      "perigee_km": 598.7745220466813,
      "latitude_deg": 8.935418887284072e-05,
      "longitude_deg": -94.53276830742975,
      "height_km": 602.0892411341678,
      "semi_major_axis_km": 6977.524846480687,
      "eccentricity": 8.79e-05,
      "inclination_deg": 97.8032,
      "raan_deg": 109.7408,
      "arg_perigee_deg": 303.3215,
      "mean_anomaly_deg": 56.7919,
      "mean_motion_rev_day": 14.8953487
    },
    {
      "epoch": "2026-04-21T17:39:49.277664Z",
      "apogee_km": 599.8168622621442,
      "perigee_km": 598.8804836848303,
      "latitude_deg": -2.693553228188812e-05,
      "longitude_deg": -3.298769167560288,
      "height_km": 602.260831803798,
      "semi_major_axis_km": 6977.4856729734865,
      "eccentricity": 6.71e-05,
      "inclination_deg": 97.8052,
      "raan_deg": 111.4642,
      "arg_perigee_deg": 285.6186,
      "mean_anomaly_deg": 74.4957,
      "mean_motion_rev_day": 14.89547414
    },
    {
      "epoch": "2026-04-22T17:50:48.850080Z",
      "apogee_km": 599.8335129821671,
      "perigee_km": 598.8217806083821,
      "latitude_deg": -1.4911168757309815e-06,
      "longitude_deg": -6.047062865890076,
      "height_km": 602.432391167162,
      "semi_major_axis_km": 6977.464646795274,
      "eccentricity": 7.25e-05,
      "inclination_deg": 97.8036,
      "raan_deg": 112.4573,
      "arg_perigee_deg": 262.4646,
      "mean_anomaly_deg": 97.6489,
      "mean_motion_rev_day": 14.89554147
    },
    {
      "epoch": "2026-04-23T11:34:52.274208Z",
      "apogee_km": 599.9186915056571,
      "perigee_km": 598.7117318220835,
      "latitude_deg": -4.346865695018445e-06,
      "longitude_deg": 87.9403476593479,
      "height_km": 602.4672023525999,
      "semi_major_axis_km": 6977.45221166387,
      "eccentricity": 8.649e-05,
      "inclination_deg": 97.8041,
      "raan_deg": 113.1873,
      "arg_perigee_deg": 259.1687,
      "mean_anomaly_deg": 100.9433,
      "mean_motion_rev_day": 14.89558129
    },
    {
      "epoch": "2026-04-24T13:22:34.913856Z",
      "apogee_km": 599.7524024100339,
      "perigee_km": 598.8230094392047,
      "latitude_deg": -3.427979423813412e-05,
      "longitude_deg": 61.01411481276155,
      "height_km": 602.5360649207786,
      "semi_major_axis_km": 6977.424705924619,
      "eccentricity": 6.66e-05,
      "inclination_deg": 97.8032,
      "raan_deg": 114.2481,
      "arg_perigee_deg": 243.1252,
      "mean_anomaly_deg": 116.9897,
      "mean_motion_rev_day": 14.89566937
    },
    {
      "epoch": "2026-04-25T13:33:32.944032Z",
      "apogee_km": 599.79708416825,
      "perigee_km": 598.6904715768796,
      "latitude_deg": -5.912449365075336e-05,
      "longitude_deg": 58.27347362996209,
      "height_km": 602.5676108112367,
      "semi_major_axis_km": 6977.380777872565,
      "eccentricity": 7.93e-05,
      "inclination_deg": 97.8035,
      "raan_deg": 115.2424,
      "arg_perigee_deg": 238.9499,
      "mean_anomaly_deg": 121.164,
      "mean_motion_rev_day": 14.89581004
    },
    {
      "epoch": "2026-04-26T16:57:58.021056Z",
      "apogee_km": 599.8200102979308,
      "perigee_km": 598.5660445454014,
      "latitude_deg": 2.2274317441286264e-05,
      "longitude_deg": 7.170311211058397,
      "height_km": 602.6497801364104,
      "semi_major_axis_km": 6977.330027421665,
      "eccentricity": 8.986e-05,
      "inclination_deg": 97.8033,
      "raan_deg": 116.3693,
      "arg_perigee_deg": 228.1545,
      "mean_anomaly_deg": 131.9596,
      "mean_motion_rev_day": 14.89597256
    },
    {
      "epoch": "2026-04-27T17:08:54.788064Z",
      "apogee_km": 599.8786063273683,
      "perigee_km": 598.4524456910522,
      "latitude_deg": -7.967316565866792e-06,
      "longitude_deg": 4.434749555458383,
      "height_km": 602.7442891147423,
      "semi_major_axis_km": 6977.30252600921,
      "eccentricity": 0.0001022,
      "inclination_deg": 97.8029,
      "raan_deg": 117.3634,
      "arg_perigee_deg": 220.7462,
      "mean_anomaly_deg": 139.3679,
      "mean_motion_rev_day": 14.89606063
    },
    {
      "epoch": "2026-04-28T17:19:50.984832Z",
      "apogee_km": 599.9175691941737,
      "perigee_km": 598.3504741227098,
      "latitude_deg": -2.4580820473470782e-05,
      "longitude_deg": 1.7015685438190893,
      "height_km": 602.82479022275,
      "semi_major_axis_km": 6977.271021658441,
      "eccentricity": 0.0001123,
      "inclination_deg": 97.8026,
      "raan_deg": 118.3575,
      "arg_perigee_deg": 213.65,
      "mean_anomaly_deg": 146.4646,
      "mean_motion_rev_day": 14.89616152
    },
    {
      "epoch": "2026-04-29T20:44:13.997760Z",
      "apogee_km": 599.9515032790505,
      "perigee_km": 598.2406857242786,
      "latitude_deg": 9.415022354449535e-08,
      "longitude_deg": -49.39316214661453,
      "height_km": 602.9062808863264,
      "semi_major_axis_km": 6977.233094501664,
      "eccentricity": 0.0001226,
      "inclination_deg": 97.8025,
      "raan_deg": 119.4842,
      "arg_perigee_deg": 205.5494,
      "mean_anomaly_deg": 154.5663,
      "mean_motion_rev_day": 14.89628298
    }
  ]
}